[{"OBJECT_NAME":"STARLINK-31509","OBJECT_ID":"2024-073Y","EPOCH":"2026-03-08T03:16:45.982848","MEAN_MOTION":15.27600841,"ECCENTRICITY":8.887e-5,"INCLINATION":43.0035,"RA_OF_ASC_NODE":327.1834,"ARG_OF_PERICENTER":323.782,"MEAN_ANOMALY":36.2971,"EPHEMERIS_TYPE":0,"CLASSIFICATION_TYPE":"U","NORAD_CAT_ID":59533,"ELEMENT_SET_NO":999,"REV_AT_EPOCH":10593,"BSTAR":0.0001688003,"MEAN_MOTION_DOT":4.389e-5,"MEAN_MOTION_DDOT":0},{"OBJECT_NAME":"GB 3","OBJECT_ID":"1983-056G","EPOCH":"2026-03-09T13:52:06.501792","MEAN_MOTION":13.81302374,"ECCENTRICITY":0.0733296,"INCLINATION":63.3073,"RA_OF_ASC_NODE":158.0315,"ARG_OF_PERICENTER":130.105,"MEAN_ANOMALY":236.6668,"EPHEMERIS_TYPE":0,"CLASSIFICATION_TYPE":"U","NORAD_CAT_ID":14180,"ELEMENT_SET_NO":999,"REV_AT_EPOCH":34523,"BSTAR":0.00052827,"MEAN_MOTION_DOT":4.843e-5,"MEAN_MOTION_DDOT":0}]
